#aV2015  9 22  0  0  0.00000000     288 DD+AD WGS84 FIT  NGA
## 1863 172800.00000000   300.00000000 57287 0.0000000000000
+   31     1  2  3  4  5  6  7  8  9 11 12 13 14 15 16 17 18
+         19 20 21 22 23 24 25 26 27 28 29 30 31 32  0  0  0
+          0  0  0  0  0  0  0  0  0  0  0  0  0  0  0  0  0
+          0  0  0  0  0  0  0  0  0  0  0  0  0  0  0  0  0
+          0  0  0  0  0  0  0  0  0  0  0  0  0  0  0  0  0
++         2  2  2  2  2  2  2  2  2  2  2  2  2  2  2  2  2
++         2  2  2  2  2  2  2  2  2  2  2  2  2  2  0  0  0
++         0  0  0  0  0  0  0  0  0  0  0  0  0  0  0  0  0
++         0  0  0  0  0  0  0  0  0  0  0  0  0  0  0  0  0
++         0  0  0  0  0  0  0  0  0  0  0  0  0  0  0  0  0
%c cc cc ccc ccc cccc cccc cccc cccc ccccc ccccc ccccc ccccc
%c cc cc ccc ccc cccc cccc cccc cccc ccccc ccccc ccccc ccccc
%f  0.0000000  0.000000000  0.00000000000  0.000000000000000
%f  0.0000000  0.000000000  0.00000000000  0.000000000000000
%i    0    0    0    0      0      0      0      0         0
%i    0    0    0    0      0      0      0      0         0
/*      NGA, ST. LOUIS,MO.                                  
/*   EPHEMERIS COMPUTED FROM  1 DAYS OF DATA                
/*   EPOCHA SMOOTHER                                       
/* CCCCCCCCCCCCCCCCCCCCCCCCCCCCCCCCCCCCCCCCCCCCCCCCCCCCCCCCC
*  2015  9 22  9 40  0.00000000
P  1   -200.818138 -15765.124406 -21416.484045      0.955532                    
V  1  25668.901137  -8574.184961   6287.648890      0.007160                    
P  2 -20399.303621  14711.711174   8190.066582    589.930356                    
V  2 -10600.203032    574.464491 -29220.039841      0.015667                    
P  3  -9188.245668 -20528.539712 -14099.387409     21.224309                    
V  3  15176.933971   9799.647764 -24166.400382      0.001813                    
P  4   9531.341173 -17563.772277 -17717.993790    -23.406661                    
V  4  21225.709172  -6056.190347  18031.687499     -0.042995                    
P  5 -10787.625576  11167.426382  21495.340703   -192.845964                    
V  5 -21210.611958 -17471.778077  -1372.170287      0.040499                    
P  6 -25424.631213   6877.417884  -3386.685239     62.837976                    
V  6   3084.623535  -4056.279780 -31416.905861      0.072763                    
P  7 -16095.560922  -8693.638757  19516.762751    484.356000                    
V  7  22770.051132  -8727.885497  14603.114300     -0.006663                    
P  8   4990.858051 -26082.582100    837.338673     -6.138291                    
V  8   2617.141220   1466.690234  31710.772025     -0.013362                    
P  9  -9508.040460 -17631.597679  17428.699844     -8.132250                    
V  9   5417.332540 -21559.404267 -18863.456630      0.021795                    
P 11   2409.277800 -20372.595508 -17377.567982   -605.725071                    
V 11  17956.359468 -11789.736924  16943.540656     -0.022910                    
P 12   6257.260754  20239.514622 -16257.379422    330.348555                    
V 12 -15702.844803 -12916.793067 -22064.705535      0.034078                    
P 13 -12674.337600  21534.692713   9032.090559   -151.064344                    
V 13   1166.237774 -11749.247078  29116.188837     -0.029397                    
P 14  15073.707882   1269.827747 -21568.148218     33.031234                    
V 14  -6541.824207  27217.709929  -3084.058179     -0.025902                    
P 15  -3200.589343  26183.292129     66.045005   -272.918207                    
V 15  -3959.535864   -676.649988  31322.351261     -0.020457                    
P 16  11246.460588  -9300.482982  22123.295474    -83.999661                    
V 16  20417.522632  19436.873819  -1844.763765      0.039205                    
P 17 -15005.616519   -156.351223 -21594.409213   -188.541008                    
V 17   5642.713663 -27561.134625  -3876.565100     -0.013503                    
P 18  21289.208380  16079.182172   -852.140225    436.196404                    
V 18   -990.851184   3938.215065  30748.087379      0.032667                    
P 19    649.121190 -24960.739542  -8651.488954   -520.460348                    
V 19   5329.038838  -9724.242258  29625.851638     -0.005564                    
P 20   6489.467855  19716.495310  16372.796504    357.283605                    
V 20 -18767.651648 -10222.737445  19645.440656      0.030483                    
P 21  19093.114409   6845.218727  18023.694677   -481.521329                    
V 21 -19386.165319   9345.498265  17366.534926     -0.027324                    
P 22  22580.185833   5688.183582 -12696.586378    393.724837                    
V 22  10982.673736  12742.943321  24601.560254      0.036980                    
P 23   -826.910302 -25355.836945   7230.922747   -134.644092                    
V 23   4906.270491  -8368.160600 -29892.864250     -0.021882                    
P 24  -2765.391665  16698.449652 -20464.554285     -5.101716                    
V 24 -24612.584003   8387.699433  10342.440481     -0.006833                    
P 25  17176.684281  19523.816209  -5919.820383    -42.146150                    
V 25  -6926.805204  -3153.181519 -30866.682559     -0.052150                    
P 26  18767.545887  -1472.651076  18735.737196    -60.289901                    
V 26  17424.298540  16268.794672 -16164.910288     -0.115118                    
P 27  11906.584645 -20315.999637  12139.422668     21.655974                    
V 27   -375.564829  15645.971341  26609.765900      0.029951                    
P 28 -21457.934584 -11249.215240 -10353.006589    469.296941                    
V 28  -8850.281783 -11016.937612  28525.150756      0.025101                    
P 29   6691.103285  19990.670289  16193.084273    635.617366                    
V 29  -6134.949679  19616.634880 -21661.238328      0.021145                    
P 30 -23751.367030  -1892.194622  11822.236046     28.786716                    
V 30  13733.578127  -6505.336996  26465.893029      0.065072                    
P 31  25748.748115  -6773.472286  -2410.570806    301.961890                    
V 31  -2362.464489   3005.990432 -31626.231827     -0.014127                    
P 32   3276.548267 -17143.197438 -20207.230350    -36.122852                    
V 32  18799.932161  17193.308235 -11027.438984      0.111054                    
EOF
